NORAD_CAT_ID,OBJECT_NAME,OBJECT_TYPE,EPOCH,MEAN_MOTION,ECCENTRICITY,INCLINATION,RA_OF_ASC_NODE,ARG_OF_PERICENTER,MEAN_ANOMALY,BSTAR,MEAN_MOTION_DOT,MEAN_MOTION_DDOT,TLE_LINE0,TLE_LINE1,TLE_LINE2,SEMIMAJOR_AXIS,PERIOD,APOGEE,PERIGEE,DECAYED
55960.0,STARLINK-5938,PAYLOAD,2024-03-26 21:58:04,14.98329872,0.0002868,69.9997,261.7065,264.6627,95.4205,-7.1928e-05,-9.51e-06,0.0,0 STARLINK-5938,1 55960U 23037AY  24086.91533245 -.00000951  00000-0 -71928-4 0  9990,2 55960  69.9997 261.7065 0002868 264.6627  95.4205 14.98329872 57707,6950.193,96.107,574.052,570.065,0.0
55960.0,STARLINK-5938,PAYLOAD,2024-03-27 13:59:25,14.98326318,0.0002914,70.0,260.0227,269.365,90.7175,3.1037e-05,2.77e-06,0.0,0 STARLINK-5938,1 55960U 23037AY  24087.58293223  .00000277  00000-0  31037-4 0  9999,2 55960  70.0000 260.0227 0002914 269.3650  90.7175 14.98326318 57804,6950.204,96.107,574.095,570.044,0.0
55960.0,STARLINK-5938,PAYLOAD,2024-03-27 20:23:57,14.98326764,0.0002926,70.0,259.3494,269.601,90.4814,3.3402e-05,3.06e-06,0.0,0 STARLINK-5938,1 55960U 23037AY  24087.84997253  .00000306  00000-0  33402-4 0  9993,2 55960  70.0000 259.3494 0002926 269.6010  90.4814 14.98326764 58181,6950.203,96.107,574.102,570.034,0.0
55960.0,STARLINK-5938,PAYLOAD,2024-03-28 12:25:17,14.98331777,0.000305,69.9996,257.6656,269.6108,90.4702,6.8438e-05,7.24e-06,0.0,0 STARLINK-5938,1 55960U 23037AY  24088.51756868  .00000724  00000-0  68438-4 0  9994,2 55960  69.9996 257.6656 0003050 269.6108  90.4702 14.98331777 57949,6950.187,96.107,574.172,569.933,0.0
55960.0,STARLINK-5938,PAYLOAD,2024-03-28 17:13:42,14.98332335,0.0003064,69.9996,257.1605,270.2209,89.8599,6.9863e-05,7.41e-06,0.0,0 STARLINK-5938,1 55960U 23037AY  24088.71784798  .00000741  00000-0  69863-4 0  9991,2 55960  69.9996 257.1605 0003064 270.2209  89.8599 14.98332335 58312,6950.186,96.107,574.18,569.921,0.0
55960.0,STARLINK-5938,PAYLOAD,2024-03-29 12:27:19,14.98330014,0.0003117,69.9995,255.1404,269.9131,90.1671,1.3057e-05,6.3e-07,0.0,0 STARLINK-5938,1 55960U 23037AY  24089.51897040  .00000063  00000-0  13057-4 0  9996,2 55960  69.9995 255.1404 0003117 269.9131  90.1671 14.98330014 58097,6950.193,96.107,574.224,569.891,0.0
55960.0,STARLINK-5938,PAYLOAD,2024-03-29 20:27:59,14.9833171,0.0003074,69.9999,254.2985,270.3582,89.7225,-6.8464e-06,-1.75e-06,0.0,0 STARLINK-5938,1 55960U 23037AY  24089.85276973 -.00000175  00000-0 -68464-5 0  9998,2 55960  69.9999 254.2985 0003074 270.3582  89.7225 14.98331710 58489,6950.188,96.107,574.189,569.916,0.0
55960.0,STARLINK-5938,PAYLOAD,2024-03-30 14:05:28,14.9832764,0.0003031,69.9985,252.4462,270.7689,89.3122,-5.7243e-05,-7.76e-06,0.0,0 STARLINK-5938,1 55960U 23037AY  24090.58713368 -.00000776  00000-0 -57243-4 0  9993,2 55960  69.9985 252.4462 0003031 270.7689  89.3122 14.98327640 58253,6950.2,96.107,574.172,569.959,0.0
55960.0,STARLINK-5938,PAYLOAD,2024-03-30 20:30:00,14.98329896,0.0003065,69.999,251.7734,272.2291,87.8517,-5.9931e-05,-8.08e-06,0.0,0 STARLINK-5938,1 55960U 23037AY  24090.85417269 -.00000808  00000-0 -59931-4 0  9996,2 55960  69.9990 251.7734 0003065 272.2291  87.8517 14.98329896 58634,6950.193,96.107,574.188,569.928,0.0
55960.0,STARLINK-5938,PAYLOAD,2024-03-31 12:31:20,14.98335057,0.0003101,69.9994,250.0901,272.5285,87.5519,5.3329e-05,5.43e-06,0.0,0 STARLINK-5938,1 55960U 23037AY  24091.52176571  .00000543  00000-0  53329-4 0  9998,2 55960  69.9994 250.0901 0003101 272.5285  87.5519 14.98335057 58739,6950.177,96.107,574.198,569.887,0.0
55960.0,STARLINK-5938,PAYLOAD,2024-03-31 14:07:28,14.98335323,0.0003104,69.9995,249.9217,272.5375,87.5429,5.5334e-05,5.67e-06,0.0,0 STARLINK-5938,1 55960U 23037AY  24091.58852530  .00000567  00000-0  55334-4 0  9994,2 55960  69.9995 249.9217 0003104 272.5375  87.5429 14.98335323 58400,6950.176,96.107,574.199,569.884,0.0
55960.0,STARLINK-5938,PAYLOAD,2024-03-31 20:32:00,14.98339004,0.0003089,69.9997,249.2484,272.5802,87.5004,9.2255e-05,1.008e-05,0.0,0 STARLINK-5938,1 55960U 23037AY  24091.85556092  .00001008  00000-0  92255-4 0  9992,2 55960  69.9997 249.2484 0003089 272.5802  87.5004 14.98339004 58441,6950.165,96.106,574.177,569.883,0.0
55960.0,STARLINK-5938,PAYLOAD,2024-04-01 12:33:22,14.98323829,0.0002984,70.0001,247.5651,272.9379,87.1439,-4.5854e-06,-1.48e-06,0.0,0 STARLINK-5938,1 55960U 23037AY  24092.52317323 -.00000148  00000-0 -45854-5 0  9999,2 55960  70.0001 247.5651 0002984 272.9379  87.1439 14.98323829 58887,6950.212,96.107,574.151,570.003,0.0
55960.0,STARLINK-5938,PAYLOAD,2024-04-01 14:09:30,14.98323799,0.0002985,70.0,247.3967,272.9257,87.156,-5.212e-06,-1.55e-06,0.0,0 STARLINK-5938,1 55960U 23037AY  24092.58993345 -.00000155  00000-0 -52120-5 0  9991,2 55960  70.0000 247.3967 0002985 272.9257  87.1560 14.98323799 58555,6950.212,96.107,574.152,570.002,0.0
55960.0,STARLINK-5938,PAYLOAD,2024-04-02 02:58:34,14.98332755,0.0003213,70.0004,246.0503,274.2354,85.8438,-8.2802e-05,-1.081e-05,0.0,0 STARLINK-5938,1 55960U 23037AY  24093.12401010 -.00001081  00000-0 -82802-4 0  9993,2 55960  70.0004 246.0503 0003213 274.2354  85.8438 14.98332755 58976,6950.184,96.107,574.282,569.816,0.0
55960.0,STARLINK-5938,PAYLOAD,2024-04-02 12:35:22,14.98333963,0.0002874,70.0003,245.0405,273.5263,86.5567,-6.2317e-05,-8.37e-06,0.0,0 STARLINK-5938,1 55960U 23037AY  24093.52456910 -.00000837  00000-0 -62317-4 0  9993,2 55960  70.0003 245.0405 0002874 273.5263  86.5567 14.98333963 58690,6950.181,96.107,574.043,570.048,0.0
55960.0,STARLINK-5938,PAYLOAD,2024-04-02 20:36:02,14.98334123,0.0002808,70.0005,244.1995,269.7441,90.3396,-3.2527e-05,-4.81e-06,0.0,0 STARLINK-5938,1 55960U 23037AY  24093.85836723 -.00000481  00000-0 -32527-4 0  9998,2 55960  70.0005 244.1995 0002808 269.7441  90.3396 14.98334123 58746,6950.18,96.107,573.997,570.094,0.0
55960.0,STARLINK-5938,PAYLOAD,2024-04-03 11:01:15,14.98327964,0.0002885,70.0003,242.6844,269.9773,90.1055,1.9301e-05,1.37e-06,0.0,0 STARLINK-5938,1 55960U 23037AY  24094.45920914  .00000137  00000-0  19301-4 0  9992,2 55960  70.0003 242.6844 0002885 269.9773  90.1055 14.98327964 59178,6950.199,96.107,574.069,570.059,0.0
55960.0,STARLINK-5938,PAYLOAD,2024-04-03 12:37:23,14.98327826,0.0002888,70.0003,242.5161,269.8184,90.2644,1.7155e-05,1.12e-06,0.0,0 STARLINK-5938,1 55960U 23037AY  24094.52596931  .00000112  00000-0  17155-4 0  9996,2 55960  70.0003 242.5161 0002888 269.8184  90.2644 14.98327826 58842,6950.2,96.107,574.072,570.057,0.0
55960.0,STARLINK-5938,PAYLOAD,2024-04-03 20:38:03,14.9832955,0.0002892,70.0003,241.6747,268.1193,91.9635,3.2403e-05,2.94e-06,0.0,0 STARLINK-5938,1 55960U 23037AY  24094.85976782  .00000294  00000-0  32403-4 0  9992,2 55960  70.0003 241.6747 0002892 268.1193  91.9635 14.98329550 58898,6950.194,96.107,574.069,570.049,0.0
55960.0,STARLINK-5938,PAYLOAD,2024-04-04 12:39:24,14.98330048,0.0002935,70.0002,239.9912,267.8105,92.2718,2.4555e-05,2e-06,0.0,0 STARLINK-5938,1 55960U 23037AY  24095.52736750  .00000200  00000-0  24555-4 0  9992,2 55960  70.0002 239.9912 0002935 267.8105  92.2718 14.98330048 59338,6950.193,96.107,574.098,570.018,0.0
55960.0,STARLINK-5938,PAYLOAD,2024-04-04 14:15:32,14.98330068,0.0002935,70.0003,239.8229,267.7831,92.2992,2.3978e-05,1.93e-06,0.0,0 STARLINK-5938,1 55960U 23037AY  24095.59412747  .00000193  00000-0  23978-4 0  9995,2 55960  70.0003 239.8229 0002935 267.7831  92.2992 14.98330068 59004,6950.193,96.107,574.098,570.018,0.0
55960.0,STARLINK-5938,PAYLOAD,2024-04-04 19:03:56,14.98331824,0.0003007,70.0002,239.3175,267.3847,92.6967,2.7726e-06,-6e-07,0.0,0 STARLINK-5938,1 55960U 23037AY  24095.79440658 -.00000060  00000-0  27726-5 0  9999,2 55960  70.0002 239.3175 0003007 267.3847  92.6967 14.98331824 59032,6950.187,96.107,574.142,569.962,0.0
55960.0,STARLINK-5938,PAYLOAD,2024-04-05 12:41:25,14.98331711,0.0003161,69.9998,237.4652,268.452,91.6277,7.5262e-07,-8.4e-07,0.0,0 STARLINK-5938,1 55960U 23037AY  24096.52876541 -.00000084  00000-0  75262-6 0  9990,2 55960  69.9998 237.4652 0003161 268.4520  91.6277 14.98331711 59480,6950.188,96.107,574.25,569.856,0.0
55960.0,STARLINK-5938,PAYLOAD,2024-04-05 19:05:57,14.98335113,0.0003137,70.0,236.7926,269.8606,90.2194,3.8666e-05,3.68e-06,0.0,0 STARLINK-5938,1 55960U 23037AY  24096.79580177  .00000368  00000-0  38666-4 0  9995,2 55960  70.0000 236.7926 0003137 269.8606  90.2194 14.98335113 59186,6950.177,96.107,574.222,569.862,0.0
55960.0,STARLINK-5938,PAYLOAD,2024-04-06 09:31:10,14.98327747,0.0003123,70.0005,235.278,269.901,90.1791,-1.4309e-05,-2.64e-06,0.0,0 STARLINK-5938,1 55960U 23037AY  24097.39664724 -.00000264  00000-0 -14309-4 0  9998,2 55960  70.0005 235.2780 0003123 269.9010  90.1791 14.98327747 59274,6950.2,96.107,574.235,569.894,0.0
55960.0,STARLINK-5938,PAYLOAD,2024-04-06 15:55:42,14.98330285,0.0003004,70.0007,234.6046,267.4162,92.6653,1.4068e-05,7.5e-07,0.0,0 STARLINK-5938,1 55960U 23037AY  24097.66368481  .00000075  00000-0  14068-4 0  9999,2 55960  70.0007 234.6046 0003004 267.4162  92.6653 14.98330285 59650,6950.192,96.107,574.145,569.969,0.0
55960.0,STARLINK-5938,PAYLOAD,2024-04-07 09:33:11,14.98331008,0.0002993,70.0009,232.7531,270.4968,89.5848,-2.2342e-05,-3.6e-06,0.0,0 STARLINK-5938,1 55960U 23037AY  24098.39804484 -.00000360  00000-0 -22342-4 0  9991,2 55960  70.0009 232.7531 0002993 270.4968  89.5848 14.98331008 59424,6950.19,96.107,574.135,569.975,0.0
55960.0,STARLINK-5938,PAYLOAD,2024-04-07 15:57:43,14.98333275,0.0002985,70.001,232.0799,270.2737,89.808,1.6458e-06,-7.3e-07,0.0,0 STARLINK-5938,1 55960U 23037AY  24098.66508240 -.00000073  00000-0  16458-5 0  9994,2 55960  70.0010 232.0799 0002985 270.2737  89.8080 14.98333275 59809,6950.183,96.107,574.122,569.973,0.0
55960.0,STARLINK-5938,PAYLOAD,2024-04-08 09:35:11,14.98330125,0.0003132,70.0019,230.2291,269.9331,90.1469,8.2356e-06,5e-08,0.0,0 STARLINK-5938,1 55960U 23037AY  24099.39944362  .00000005  00000-0  82356-5 0  9998,2 55960  70.0019 230.2291 0003132 269.9331  90.1469 14.98330125 59576,6950.193,96.107,574.234,569.881,0.0
